ORBCOMM FM06            
1 25118U 97084G   26204.09086578  .00000731  00000+0  23563-3 0  9994
2 25118  45.0124 239.8604 0001926 257.8464 127.5957 14.47638176499590
ORBCOMM FM04            
1 25159U 98007C   26203.85781771  .00000554  00000+0  23500-3 0  9999
2 25159 107.9632 242.8382 0042043 263.9029  95.7320 14.35793412481711
ORBCOMM FM19            
1 25415U 98046C   26204.04708506  .00000769  00000+0  28939-3 0  9993
2 25415  44.9940  73.0970 0003355 114.5844  31.5424 14.39552862461946
ORBCOMM FM20            
1 25416U 98046D   26204.06755032  .00000541  00000+0  22338-3 0  9997
2 25416  44.9942  81.3198 0000852  61.7495 298.3439 14.38108978461951
ORBCOMM FM27            
1 25481U 98053G   26204.28438412  .00000731  00000+0  27938-3 0  9993
2 25481  45.0040 163.8943 0001974 322.2806  37.7904 14.39195799455431
ORBCOMM FM32            
1 25982U 99065C   26203.81237464  .00000385  00000+0  17560-3 0  9990
2 25982  45.0168   4.6056 0006352 227.1608 132.8707 14.37174775392216
ORBCOMM FM109           
1 40086U 14040A   26203.50594400  .00000088  00000+0  54798-4 0  9999
2 40086  47.0030 284.4996 0001098 346.5261  13.5595 14.58874903639501
ORBCOMM FM110           
1 41182U 15081D   26204.26381826  .00000695  00000+0  18307-3 0  9992
2 41182  47.0004 190.8550 0003837 253.7732 106.2732 14.58928471562891
ORBCOMM FM118           
1 41183U 15081E   26204.29833009  .00000611  00000+0  16524-3 0  9998
2 41183  47.0026 191.0327 0003283 219.7945 140.2701 14.58912742563006
ORBCOMM FM112           
1 41184U 15081F   26204.09669605  .00000563  00000+0  15514-3 0  9990
2 41184  46.9990 100.4336 0003201   3.5634 356.5274 14.58947550564196
ORBCOMM FM113           
1 41185U 15081G   26204.07460570  .00000311  00000+0  10187-3 0  9991
2 41185  47.0007 100.9337 0001765 353.8183   6.2680 14.58888123564175
ORBCOMM FM108           
1 41187U 15081J   26204.17341584  .00000497  00000+0  14118-3 0  9990
2 41187  47.0061  12.0482 0002124 353.9189   6.1671 14.58918555565339
ORBCOMM FM117           
1 41188U 15081K   26203.86528108  .00000476  00000+0  13688-3 0  9993
2 41188  47.0023  12.1305 0002530   1.4787 358.6105 14.58905160565338
ORBCOMM FM116           
1 41189U 15081L   26204.11930582  .00000484  00000+0  13841-3 0  9996
2 41189  47.0023 100.7190 0001747 250.5157 109.5541 14.58914705564186
